STARLINK-31305          
1 59232U 24049B   26068.26605231 -.00003517  00000+0 -11838-3 0  9998
2 59232  43.0033 145.7122 0001297 267.3555  92.7148 15.27570268112323
FLOCK 4G-23             
1 62647U 25009AQ  26068.71663397  .00012440  00000+0  46816-3 0  9993
2 62647  97.3979 150.9478 0000905   7.2707 352.8545 15.27262579 63728
